ONEWEB-0607             
1 54671U 22166AF  25295.51526584  .00000683  00000+0  16224-2 0  9992
2 54671  87.9167 291.3882 0001750  87.7237 272.4097 13.21775686140140
ONEWEB-0608             
1 54672U 22166AG  25295.44613779  .00001093  00000+0  26179-2 0  9994
2 54672  87.9173 291.3857 0001555  76.0102 284.1204 13.21754037140142
ONEWEB-0610             
1 54673U 22166AH  25295.50209745  .00000238  00000+0  54595-3 0  9990
2 54673  87.9166 291.4116 0001403  74.2159 285.9129 13.21820423140056
ONEWEB-0611             
1 54674U 22166AJ  25295.49553399  .00000048  00000+0  83990-4 0  9997
2 54674  87.9167 291.4084 0002017  94.3907 265.7457 13.21845599140048
ONEWEB-0612             
1 54675U 22166AK  25295.50868758  .00000442  00000+0  10393-2 0  9991
2 54675  87.9169 291.3844 0001717  86.9156 273.2174 13.21797753140030
ONEWEB-0615             
1 54676U 22166AL  25295.48895493  .00000100  00000+0  21106-3 0  9991
2 54676  87.9169 291.4148 0001882  89.3886 270.7463 13.21869368140045
ONEWEB-0655             
1 54677U 22166AM  25295.46420937  .00004346  00000+0  10504-1 0  9991
2 54677  87.9166 291.4254 0001605  93.4726 266.6591 13.21720263140038
ONEWEB-0659             
1 54678U 22166AN  25295.48070524  .00000798  00000+0  19023-2 0  9990
2 54678  87.9165 291.4219 0001980  88.5159 271.6202 13.21763006140127
